[{"OBJECT_NAME":"GLOBALSTAR M082","OBJECT_ID":"2011-080C","EPOCH":"2026-03-09T23:27:22.854240","MEAN_MOTION":12.62268253,"ECCENTRICITY":0.0001134,"INCLINATION":52.0066,"RA_OF_ASC_NODE":276.4903,"ARG_OF_PERICENTER":77.8834,"MEAN_ANOMALY":69.7432,"EPHEMERIS_TYPE":0,"CLASSIFICATION_TYPE":"U","NORAD_CAT_ID":38042,"ELEMENT_SET_NO":999,"REV_AT_EPOCH":65706,"BSTAR":0.00011935201,"MEAN_MOTION_DOT":-8.2e-7,"MEAN_MOTION_DDOT":0},{"OBJECT_NAME":"COSMOS 2215","OBJECT_ID":"1992-068E","EPOCH":"2026-03-09T23:18:17.589888","MEAN_MOTION":12.60960642,"ECCENTRICITY":0.00134869,"INCLINATION":82.5955,"RA_OF_ASC_NODE":75.6828,"ARG_OF_PERICENTER":46.0374,"MEAN_ANOMALY":314.1826,"EPHEMERIS_TYPE":0,"CLASSIFICATION_TYPE":"U","NORAD_CAT_ID":22186,"ELEMENT_SET_NO":999,"REV_AT_EPOCH":53636,"BSTAR":-8.781371e-6,"MEAN_MOTION_DOT":9.0e-8,"MEAN_MOTION_DDOT":0}]
